NORAD_CAT_ID,OBJECT_NAME,OBJECT_TYPE,EPOCH,MEAN_MOTION,ECCENTRICITY,INCLINATION,RA_OF_ASC_NODE,ARG_OF_PERICENTER,MEAN_ANOMALY,BSTAR,MEAN_MOTION_DOT,MEAN_MOTION_DDOT,TLE_LINE0,TLE_LINE1,TLE_LINE2,SEMIMAJOR_AXIS,PERIOD,APOGEE,PERIGEE,DECAYED
51127.0,STARLINK-3370,PAYLOAD,2024-03-31 17:08:22,15.08848497,9.79e-05,53.2163,237.3552,70.1806,289.9292,0.00017714,2.533e-05,0.0,0 STARLINK-3370,1 51127U 22005Z   24091.71415316  .00002533  00000-0  17714-3 0  9995,2 51127  53.2163 237.3552 0000979  70.1806 289.9292 15.08848497122978,6917.854,95.437,540.397,539.042,0.0
51127.0,STARLINK-3370,PAYLOAD,2024-04-01 02:40:42,15.08838383,9.46e-05,53.2157,235.57,81.7641,278.3458,9.4837e-05,1.222e-05,0.0,0 STARLINK-3370,1 51127U 22005Z   24092.11159810  .00001222  00000-0  94837-4 0  9990,2 51127  53.2157 235.5700 0000946  81.7641 278.3458 15.08838383123032,6917.885,95.438,540.405,539.096,0.0
51127.0,STARLINK-3370,PAYLOAD,2024-04-01 13:48:24,15.08826725,9.42e-05,53.2171,233.49,91.8949,268.2151,-3.1866e-05,-7.95e-06,0.0,0 STARLINK-3370,1 51127U 22005Z   24092.57528565 -.00000795  00000-0 -31866-4 0  9996,2 51127  53.2171 233.4900 0000942  91.8949 268.2151 15.08826725121983,6917.921,95.438,540.438,539.134,0.0
51127.0,STARLINK-3370,PAYLOAD,2024-04-02 02:31:29,15.08835474,0.0001188,53.2172,231.1095,82.8748,277.2379,0.00012999,1.781e-05,0.0,0 STARLINK-3370,1 51127U 22005Z   24093.10520670  .00001781  00000-0  12999-3 0  9994,2 51127  53.2172 231.1095 0001188  82.8748 277.2379 15.08835474123181,6917.894,95.438,540.581,538.937,0.0
51127.0,STARLINK-3370,PAYLOAD,2024-04-02 15:14:34,15.08843674,8.87e-05,53.2156,228.7335,78.928,281.1812,0.0002631,3.902e-05,0.0,0 STARLINK-3370,1 51127U 22005Z   24093.63512390  .00003902  00000-0  26310-3 0  9991,2 51127  53.2156 228.7335 0000887  78.9280 281.1812 15.08843674122146,6917.869,95.437,540.348,539.121,0.0
51127.0,STARLINK-3370,PAYLOAD,2024-04-03 08:43:49,15.08842877,8.21e-05,53.2147,225.4621,84.3749,275.7337,0.00045252,6.922e-05,0.0,0 STARLINK-3370,1 51127U 22005Z   24094.36376492  .00006922  00000-0  45252-3 0  9994,2 51127  53.2147 225.4621 0000821  84.3749 275.7337 15.08842877123378,6917.872,95.437,540.305,539.169,0.0
51127.0,STARLINK-3370,PAYLOAD,2024-04-03 15:05:22,15.0882917,9.22e-05,53.2163,224.272,90.2263,269.8834,0.00036667,5.551e-05,0.0,0 STARLINK-3370,1 51127U 22005Z   24094.62873432  .00005551  00000-0  36667-3 0  9996,2 51127  53.2163 224.2720 0000922  90.2263 269.8834 15.08829170122299,6917.913,95.438,540.416,539.141,0.0
51127.0,STARLINK-3370,PAYLOAD,2024-04-03 18:16:08,15.0884247,0.0001104,53.2168,223.6774,88.3327,271.7791,0.00014373,2.001e-05,0.0,0 STARLINK-3370,1 51127U 22005Z   24094.76120601  .00002001  00000-0  14373-3 0  9991,2 51127  53.2168 223.6774 0001104  88.3327 271.7791 15.08842470122313,6917.873,95.437,540.502,538.974,0.0
51127.0,STARLINK-3370,PAYLOAD,2024-04-04 02:13:03,15.08840835,0.0001159,53.218,222.1897,90.4352,269.6772,0.00010777,1.428e-05,0.0,0 STARLINK-3370,1 51127U 22005Z   24095.09240700  .00001428  00000-0  10777-3 0  9997,2 51127  53.2180 222.1897 0001159  90.4352 269.6772 15.08840835123486,6917.878,95.438,540.545,538.941,0.0
51127.0,STARLINK-3370,PAYLOAD,2024-04-04 14:56:08,15.08843325,9.95e-05,53.219,219.8112,90.8532,269.2574,0.0001355,1.87e-05,0.0,0 STARLINK-3370,1 51127U 22005Z   24095.62232364  .00001870  00000-0  13550-3 0  9996,2 51127  53.2190 219.8112 0000995  90.8532 269.2574 15.08843325122449,6917.87,95.437,540.424,539.047,0.0
51127.0,STARLINK-3370,PAYLOAD,2024-04-05 11:36:09,15.08844223,0.00012,53.2187,215.9454,93.8522,266.2607,0.00013505,1.862e-05,0.0,0 STARLINK-3370,1 51127U 22005Z   24096.48344098  .00001862  00000-0  13505-3 0  9990,2 51127  53.2187 215.9454 0001200  93.8522 266.2607 15.08844223123693,6917.867,95.437,540.563,538.902,0.0
51127.0,STARLINK-3370,PAYLOAD,2024-04-05 14:46:55,15.08849407,0.0001139,53.2186,215.3514,91.0528,269.0595,0.0001852,2.662e-05,0.0,0 STARLINK-3370,1 51127U 22005Z   24096.61591670  .00002662  00000-0  18520-3 0  9996,2 51127  53.2186 215.3514 0001139  91.0528 269.0595 15.08849407122594,6917.852,95.437,540.505,538.929,0.0
51127.0,STARLINK-3370,PAYLOAD,2024-04-06 08:16:10,15.0883877,0.0001671,53.2191,212.0811,92.503,267.6153,-3.0927e-05,-7.8e-06,0.0,0 STARLINK-3370,1 51127U 22005Z   24097.34456384 -.00000780  00000-0 -30927-4 0  9996,2 51127  53.2191 212.0811 0001671  92.5030 267.6153 15.08838770123821,6917.884,95.438,540.905,538.593,0.0
51127.0,STARLINK-3370,PAYLOAD,2024-04-06 14:37:42,15.08839134,0.000173,53.2189,210.8916,92.4335,267.6855,-2.2092e-05,-6.4e-06,0.0,0 STARLINK-3370,1 51127U 22005Z   24097.60952368 -.00000640  00000-0 -22092-4 0  9997,2 51127  53.2189 210.8916 0001730  92.4335 267.6855 15.08839134122747,6917.883,95.438,540.945,538.551,0.0
51127.0,STARLINK-3370,PAYLOAD,2024-04-07 00:10:02,15.08827982,0.0001524,53.2176,209.111,95.6212,264.4954,-0.00016854,-2.968e-05,0.0,0 STARLINK-3370,1 51127U 22005Z   24098.00697104 -.00002968  00000-0 -16854-3 0  9999,2 51127  53.2176 209.1110 0001524  95.6212 264.4954 15.08827982123924,6917.917,95.438,540.836,538.728,0.0
51127.0,STARLINK-3370,PAYLOAD,2024-04-07 14:28:31,15.08831039,9.7e-05,53.2155,206.4308,84.8692,275.2411,-6.8057e-05,-1.37e-05,0.0,0 STARLINK-3370,1 51127U 22005Z   24098.60313777 -.00001370  00000-0 -68057-4 0  9995,2 51127  53.2155 206.4308 0000970  84.8692 275.2411 15.08831039122897,6917.908,95.438,540.444,539.102,0.0
51127.0,STARLINK-3370,PAYLOAD,2024-04-08 00:00:49,15.08838311,0.0001205,53.2166,204.6469,86.0951,274.0179,1.3951e-05,-6.6e-07,0.0,0 STARLINK-3370,1 51127U 22005Z   24099.00057256 -.00000066  00000-0  13951-4 0  9990,2 51127  53.2166 204.6469 0001205  86.0951 274.0179 15.08838311124071,6917.886,95.438,540.584,538.917,0.0
51127.0,STARLINK-3370,PAYLOAD,2024-04-08 23:51:35,15.08849478,0.0001307,53.2186,200.1867,88.8829,271.2313,0.00012308,1.672e-05,0.0,0 STARLINK-3370,1 51127U 22005Z   24099.99416337  .00001672  00000-0  12308-3 0  9994,2 51127  53.2186 200.1867 0001307  88.8829 271.2313 15.08849478123101,6917.851,95.437,540.621,538.812,0.0
51127.0,STARLINK-3370,PAYLOAD,2024-04-09 12:34:41,15.08842155,0.000154,53.2192,197.8073,89.7251,270.3917,0.00017421,2.486e-05,0.0,0 STARLINK-3370,1 51127U 22005Z   24100.52409039  .00002486  00000-0  17421-3 0  9992,2 51127  53.2192 197.8073 0001540  89.7251 270.3917 15.08842155124305,6917.874,95.437,540.804,538.673,0.0
51127.0,STARLINK-3370,PAYLOAD,2024-04-10 12:25:27,15.08856896,0.0001245,53.2136,193.3446,87.5858,272.5277,-6.0795e-05,-1.256e-05,0.0,0 STARLINK-3370,1 51127U 22005Z   24101.51768007 -.00001256  00000-0 -60795-4 0  9994,2 51127  53.2136 193.3446 0001245  87.5858 272.5277 15.08856896124455,6917.829,95.436,540.555,538.832,0.0
51127.0,STARLINK-3370,PAYLOAD,2024-04-10 23:33:09,15.08844192,0.000131,53.216,191.2663,84.1978,275.9163,9.8646e-05,1.283e-05,0.0,0 STARLINK-3370,1 51127U 22005Z   24101.98136428  .00001283  00000-0  98646-4 0  9995,2 51127  53.2160 191.2663 0001310  84.1978 275.9163 15.08844192124524,6917.868,95.437,540.639,538.826,0.0
51127.0,STARLINK-3370,PAYLOAD,2024-04-11 12:16:15,15.08852297,0.0001375,53.2181,188.886,99.1512,260.9635,-0.00017132,-3.014e-05,0.0,0 STARLINK-3370,1 51127U 22005Z   24102.51128689 -.00003014  00000-0 -17132-3 0  9991,2 51127  53.2181 188.8860 0001375  99.1512 260.9635 15.08852297123486,6917.843,95.437,540.659,538.757,0.0
51127.0,STARLINK-3370,PAYLOAD,2024-04-12 12:07:02,15.08841168,0.0001549,53.218,184.4258,99.1058,261.011,3.5035e-05,2.7e-06,0.0,0 STARLINK-3370,1 51127U 22005Z   24103.50488692  .00000270  00000-0  35035-4 0  9996,2 51127  53.2180 184.4258 0001549  99.1058 261.0110 15.08841168124752,6917.877,95.437,540.813,538.67,0.0
51127.0,STARLINK-3370,PAYLOAD,2024-04-13 05:36:17,15.08829186,0.000152,53.2176,181.155,98.2696,261.8468,1.3459e-05,-7.4e-07,0.0,0 STARLINK-3370,1 51127U 22005Z   24104.23353751 -.00000074  00000-0  13459-4 0  9993,2 51127  53.2176 181.1550 0001520  98.2696 261.8468 15.08829186124865,6917.913,95.438,540.83,538.727,0.0
51127.0,STARLINK-3370,PAYLOAD,2024-04-13 11:57:50,15.08832334,0.0001542,53.2177,179.9662,97.9874,262.1294,2.9886e-05,1.88e-06,0.0,0 STARLINK-3370,1 51127U 22005Z   24104.49849652  .00000188  00000-0  29886-4 0  9997,2 51127  53.2177 179.9662 0001542  97.9874 262.1294 15.08832334123783,6917.904,95.438,540.836,538.702,0.0
51127.0,STARLINK-3370,PAYLOAD,2024-04-14 03:51:41,15.08838837,0.0001631,53.2181,176.9926,104.633,255.4843,6.7914e-05,7.93e-06,0.0,0 STARLINK-3370,1 51127U 22005Z   24105.16089334  .00000793  00000-0  67914-4 0  9991,2 51127  53.2181 176.9926 0001631 104.6330 255.4843 15.08838837125006,6917.884,95.438,540.877,538.621,0.0
51127.0,STARLINK-3370,PAYLOAD,2024-04-14 10:13:13,15.08841001,0.0001639,53.2182,175.8039,105.7606,254.3567,8.3705e-05,1.044e-05,0.0,0 STARLINK-3370,1 51127U 22005Z   24105.42585160  .00001044  00000-0  83705-4 0  9994,2 51127  53.2182 175.8039 0001639 105.7606 254.3567 15.08841001123923,6917.877,95.437,540.876,538.608,0.0
51127.0,STARLINK-3370,PAYLOAD,2024-04-15 11:39:23,15.08845711,0.0001424,53.217,171.0455,94.8326,265.2829,0.00012979,1.779e-05,0.0,0 STARLINK-3370,1 51127U 22005Z   24106.48568980  .00001779  00000-0  12979-3 0  9991,2 51127  53.2170 171.0455 0001424  94.8326 265.2829 15.08845711125206,6917.863,95.437,540.713,538.743,0.0
51127.0,STARLINK-3370,PAYLOAD,2024-04-15 13:14:46,15.08847633,0.0001535,53.2175,170.748,104.3863,255.7299,0.00014692,2.051e-05,0.0,0 STARLINK-3370,1 51127U 22005Z   24106.55192774  .00002051  00000-0  14692-3 0  9991,2 51127  53.2175 170.7480 0001535 104.3863 255.7299 15.08847633124097,6917.857,95.437,540.784,538.66,0.0
51127.0,STARLINK-3370,PAYLOAD,2024-04-16 11:30:10,15.088444,0.0001706,53.2184,166.585,86.7725,273.3463,4.0254e-05,3.53e-06,0.0,0 STARLINK-3370,1 51127U 22005Z   24107.47929368  .00000353  00000-0  40254-4 0  9997,2 51127  53.2184 166.5850 0001706  86.7725 273.3463 15.08844400125359,6917.867,95.437,540.912,538.552,0.0
